[
  {
    "OBJECT_NAME": "STARLINK-2452",
    "OBJECT_ID": "21027Z",
    "EPOCH": "2025-11-11T06:00:33.979392",
    "MEAN_MOTION": 15.0640823,
    "ECCENTRICITY": 0.0001303,
    "INCLINATION": 53.0555,
    "RA_OF_ASC_NODE": 333.3197,
    "ARG_OF_PERICENTER": 89.689,
    "MEAN_ANOMALY": 270.4248,
    "EPHEMERIS_TYPE": 0,
    "CLASSIFICATION_TYPE": "U",
    "NORAD_CAT_ID": 48115,
    "ELEMENT_SET_NO": 999,
    "REV_AT_EPOCH": 25470,
    "BSTAR": 0.00053126,
    "MEAN_MOTION_DOT": 7.642e-05,
    "MEAN_MOTION_DDOT": 0.0,
    "TLE_LINE1": "1 48115U 21027Z   25315.25039328  .00007642  00000+0  53126-3 0  9997",
    "TLE_LINE2": "2 48115  53.0555 333.3197 0001303  89.6890 270.4248 15.06408230254704",
    "COMMENT": "Grouped by shell and plane from TLE"
  },
  {
    "OBJECT_NAME": "STARLINK-2462",
    "OBJECT_ID": "21027AF",
    "EPOCH": "2025-11-11T05:07:27.663168",
    "MEAN_MOTION": 15.06392518,
    "ECCENTRICITY": 0.0001566,
    "INCLINATION": 53.0541,
    "RA_OF_ASC_NODE": 333.4769,
    "ARG_OF_PERICENTER": 92.7444,
    "MEAN_ANOMALY": 267.3724,
    "EPHEMERIS_TYPE": 0,
    "CLASSIFICATION_TYPE": "U",
    "NORAD_CAT_ID": 48121,
    "ELEMENT_SET_NO": 999,
    "REV_AT_EPOCH": 25469,
    "BSTAR": 0.0002001,
    "MEAN_MOTION_DOT": 2.7e-05,
    "MEAN_MOTION_DDOT": 0.0,
    "TLE_LINE1": "1 48121U 21027AF  25315.21351462  .00002700  00000+0  20010-3 0  9992",
    "TLE_LINE2": "2 48121  53.0541 333.4769 0001566  92.7444 267.3724 15.06392518254696",
    "COMMENT": "Grouped by shell and plane from TLE"
  },
  {
    "OBJECT_NAME": "STARLINK-2465",
    "OBJECT_ID": "21027AJ",
    "EPOCH": "2025-11-11T06:53:37.186944",
    "MEAN_MOTION": 15.06396518,
    "ECCENTRICITY": 0.0001748,
    "INCLINATION": 53.0564,
    "RA_OF_ASC_NODE": 333.1482,
    "ARG_OF_PERICENTER": 104.1649,
    "MEAN_ANOMALY": 255.9534,
    "EPHEMERIS_TYPE": 0,
    "CLASSIFICATION_TYPE": "U",
    "NORAD_CAT_ID": 48124,
    "ELEMENT_SET_NO": 999,
    "REV_AT_EPOCH": 25470,
    "BSTAR": 3.3948e-05,
    "MEAN_MOTION_DOT": 2.24e-06,
    "MEAN_MOTION_DDOT": 0.0,
    "TLE_LINE1": "1 48124U 21027AJ  25315.28723596  .00000224  00000+0  33948-4 0  9997",
    "TLE_LINE2": "2 48124  53.0564 333.1482 0001748 104.1649 255.9534 15.06396518254708",
    "COMMENT": "Grouped by shell and plane from TLE"
  },
  {
    "OBJECT_NAME": "STARLINK-2633",
    "OBJECT_ID": "21040H",
    "EPOCH": "2025-11-11T06:34:23.250144",
    "MEAN_MOTION": 15.06400261,
    "ECCENTRICITY": 0.0001536,
    "INCLINATION": 53.0556,
    "RA_OF_ASC_NODE": 338.2181,
    "ARG_OF_PERICENTER": 83.5293,
    "MEAN_ANOMALY": 276.5871,
    "EPHEMERIS_TYPE": 0,
    "CLASSIFICATION_TYPE": "U",
    "NORAD_CAT_ID": 48435,
    "ELEMENT_SET_NO": 999,
    "REV_AT_EPOCH": 24898,
    "BSTAR": 2.8977000000000004e-05,
    "MEAN_MOTION_DOT": 1.5e-06,
    "MEAN_MOTION_DDOT": 0.0,
    "TLE_LINE1": "1 48435U 21040H   25315.27388021  .00000150  00000+0  28977-4 0  9990",
    "TLE_LINE2": "2 48435  53.0556 338.2181 0001536  83.5293 276.5871 15.06400261248983",
    "COMMENT": "Grouped by shell and plane from TLE"
  },
  {
    "OBJECT_NAME": "STARLINK-3242",
    "OBJECT_ID": "21115D",
    "EPOCH": "2025-11-11T07:48:23.796288",
    "MEAN_MOTION": 15.08840913,
    "ECCENTRICITY": 0.0001471,
    "INCLINATION": 53.2179,
    "RA_OF_ASC_NODE": 330.4799,
    "ARG_OF_PERICENTER": 88.2862,
    "MEAN_ANOMALY": 271.8298,
    "EPHEMERIS_TYPE": 0,
    "CLASSIFICATION_TYPE": "U",
    "NORAD_CAT_ID": 49727,
    "ELEMENT_SET_NO": 999,
    "REV_AT_EPOCH": 21752,
    "BSTAR": 4.7714000000000004e-05,
    "MEAN_MOTION_DOT": 4.71e-06,
    "MEAN_MOTION_DDOT": 0.0,
    "TLE_LINE1": "1 49727U 21115D   25315.32527542  .00000471  00000+0  47714-4 0  9993",
    "TLE_LINE2": "2 49727  53.2179 330.4799 0001471  88.2862 271.8298 15.08840913217523",
    "COMMENT": "Grouped by shell and plane from TLE"
  },
  {
    "OBJECT_NAME": "STARLINK-3240",
    "OBJECT_ID": "21115E",
    "EPOCH": "2025-11-11T06:18:18.677088",
    "MEAN_MOTION": 15.08840351,
    "ECCENTRICITY": 0.0001498,
    "INCLINATION": 53.2187,
    "RA_OF_ASC_NODE": 330.7617,
    "ARG_OF_PERICENTER": 94.3752,
    "MEAN_ANOMALY": 265.7411,
    "EPHEMERIS_TYPE": 0,
    "CLASSIFICATION_TYPE": "U",
    "NORAD_CAT_ID": 49728,
    "ELEMENT_SET_NO": 999,
    "REV_AT_EPOCH": 21751,
    "BSTAR": 6.2588e-05,
    "MEAN_MOTION_DOT": 7.08e-06,
    "MEAN_MOTION_DDOT": 0.0,
    "TLE_LINE1": "1 49728U 21115E   25315.26271617  .00000708  00000+0  62588-4 0  9995",
    "TLE_LINE2": "2 49728  53.2187 330.7617 0001498  94.3752 265.7411 15.08840351217514",
    "COMMENT": "Grouped by shell and plane from TLE"
  },
  {
    "OBJECT_NAME": "STARLINK-3251",
    "OBJECT_ID": "21115F",
    "EPOCH": "2025-11-11T06:07:41.538432",
    "MEAN_MOTION": 15.0884078,
    "ECCENTRICITY": 0.0001611,
    "INCLINATION": 53.2192,
    "RA_OF_ASC_NODE": 330.6771,
    "ARG_OF_PERICENTER": 101.3227,
    "MEAN_ANOMALY": 258.7946,
    "EPHEMERIS_TYPE": 0,
    "CLASSIFICATION_TYPE": "U",
    "NORAD_CAT_ID": 49729,
    "ELEMENT_SET_NO": 999,
    "REV_AT_EPOCH": 21751,
    "BSTAR": 2.4439e-05,
    "MEAN_MOTION_DOT": 1.01e-06,
    "MEAN_MOTION_DDOT": 0.0,
    "TLE_LINE1": "1 49729U 21115F   25315.25534188  .00000101  00000+0  24439-4 0  9990",
    "TLE_LINE2": "2 49729  53.2192 330.6771 0001611 101.3227 258.7946 15.08840780217515",
    "COMMENT": "Grouped by shell and plane from TLE"
  },
  {
    "OBJECT_NAME": "STARLINK-3249",
    "OBJECT_ID": "21115G",
    "EPOCH": "2025-11-11T07:00:44.103168",
    "MEAN_MOTION": 15.08845711,
    "ECCENTRICITY": 0.0001335,
    "INCLINATION": 53.2172,
    "RA_OF_ASC_NODE": 330.8195,
    "ARG_OF_PERICENTER": 84.438,
    "MEAN_ANOMALY": 275.6765,
    "EPHEMERIS_TYPE": 0,
    "CLASSIFICATION_TYPE": "U",
    "NORAD_CAT_ID": 49730,
    "ELEMENT_SET_NO": 999,
    "REV_AT_EPOCH": 21751,
    "BSTAR": 8.624000000000001e-05,
    "MEAN_MOTION_DOT": 1.085e-05,
    "MEAN_MOTION_DDOT": 0.0,
    "TLE_LINE1": "1 49730U 21115G   25315.29217712  .00001085  00000+0  86240-4 0  9997",
    "TLE_LINE2": "2 49730  53.2172 330.8195 0001335  84.4380 275.6765 15.08845711217517",
    "COMMENT": "Grouped by shell and plane from TLE"
  },
  {
    "OBJECT_NAME": "STARLINK-3246",
    "OBJECT_ID": "21115J",
    "EPOCH": "2025-11-11T07:11:19.698720",
    "MEAN_MOTION": 15.08843419,
    "ECCENTRICITY": 0.0001331,
    "INCLINATION": 53.2171,
    "RA_OF_ASC_NODE": 330.7463,
    "ARG_OF_PERICENTER": 90.183,
    "MEAN_ANOMALY": 269.9315,
    "EPHEMERIS_TYPE": 0,
    "CLASSIFICATION_TYPE": "U",
    "NORAD_CAT_ID": 49732,
    "ELEMENT_SET_NO": 999,
    "REV_AT_EPOCH": 21751,
    "BSTAR": 0.0001106,
    "MEAN_MOTION_DOT": 1.473e-05,
    "MEAN_MOTION_DDOT": 0.0,
    "TLE_LINE1": "1 49732U 21115J   25315.29953355  .00001473  00000+0  11060-3 0  9997",
    "TLE_LINE2": "2 49732  53.2171 330.7463 0001331  90.1830 269.9315 15.08843419217515",
    "COMMENT": "Grouped by shell and plane from TLE"
  },
  {
    "OBJECT_NAME": "STARLINK-3252",
    "OBJECT_ID": "21115K",
    "EPOCH": "2025-11-11T06:39:30.789216",
    "MEAN_MOTION": 15.08839795,
    "ECCENTRICITY": 0.0001422,
    "INCLINATION": 53.2189,
    "RA_OF_ASC_NODE": 330.6942,
    "ARG_OF_PERICENTER": 99.2617,
    "MEAN_ANOMALY": 260.8536,
    "EPHEMERIS_TYPE": 0,
    "CLASSIFICATION_TYPE": "U",
    "NORAD_CAT_ID": 49733,
    "ELEMENT_SET_NO": 999,
    "REV_AT_EPOCH": 21751,
    "BSTAR": 4.6628e-05,
    "MEAN_MOTION_DOT": 4.54e-06,
    "MEAN_MOTION_DDOT": 0.0,
    "TLE_LINE1": "1 49733U 21115K   25315.27743969  .00000454  00000+0  46628-4 0  9991",
    "TLE_LINE2": "2 49733  53.2189 330.6942 0001422  99.2617 260.8536 15.08839795217517",
    "COMMENT": "Grouped by shell and plane from TLE"
  },
  {
    "OBJECT_NAME": "STARLINK-3113",
    "OBJECT_ID": "21115M",
    "EPOCH": "2025-11-11T06:28:53.932224",
    "MEAN_MOTION": 15.08848694,
    "ECCENTRICITY": 0.0001541,
    "INCLINATION": 53.2178,
    "RA_OF_ASC_NODE": 330.6092,
    "ARG_OF_PERICENTER": 112.9067,
    "MEAN_ANOMALY": 247.2088,
    "EPHEMERIS_TYPE": 0,
    "CLASSIFICATION_TYPE": "U",
    "NORAD_CAT_ID": 49735,
    "ELEMENT_SET_NO": 999,
    "REV_AT_EPOCH": 21751,
    "BSTAR": 0.00012539000000000002,
    "MEAN_MOTION_DOT": 1.709e-05,
    "MEAN_MOTION_DDOT": 0.0,
    "TLE_LINE1": "1 49735U 21115M   25315.27006866  .00001709  00000+0  12539-3 0  9998",
    "TLE_LINE2": "2 49735  53.2178 330.6092 0001541 112.9067 247.2088 15.08848694217516",
    "COMMENT": "Grouped by shell and plane from TLE"
  },
  {
    "OBJECT_NAME": "STARLINK-3155",
    "OBJECT_ID": "21115R",
    "EPOCH": "2025-11-11T06:55:24.480192",
    "MEAN_MOTION": 15.08841663,
    "ECCENTRICITY": 0.0001514,
    "INCLINATION": 53.2177,
    "RA_OF_ASC_NODE": 330.6428,
    "ARG_OF_PERICENTER": 93.3687,
    "MEAN_ANOMALY": 266.7479,
    "EPHEMERIS_TYPE": 0,
    "CLASSIFICATION_TYPE": "U",
    "NORAD_CAT_ID": 49739,
    "ELEMENT_SET_NO": 999,
    "REV_AT_EPOCH": 21751,
    "BSTAR": 7.912900000000001e-05,
    "MEAN_MOTION_DOT": 9.72e-06,
    "MEAN_MOTION_DDOT": 0.0,
    "TLE_LINE1": "1 49739U 21115R   25315.28847778  .00000972  00000+0  79129-4 0  9998",
    "TLE_LINE2": "2 49739  53.2177 330.6428 0001514  93.3687 266.7479 15.08841663217511",
    "COMMENT": "Grouped by shell and plane from TLE"
  },
  {
    "OBJECT_NAME": "STARLINK-3323",
    "OBJECT_ID": "22001B",
    "EPOCH": "2025-11-11T07:37:42.997728",
    "MEAN_MOTION": 15.08902951,
    "ECCENTRICITY": 0.0001431,
    "INCLINATION": 53.2181,
    "RA_OF_ASC_NODE": 330.5112,
    "ARG_OF_PERICENTER": 76.6079,
    "MEAN_ANOMALY": 283.5073,
    "EPHEMERIS_TYPE": 0,
    "CLASSIFICATION_TYPE": "U",
    "NORAD_CAT_ID": 50804,
    "ELEMENT_SET_NO": 999,
    "REV_AT_EPOCH": 21267,
    "BSTAR": 0.00056883,
    "MEAN_MOTION_DOT": 8.792e-05,
    "MEAN_MOTION_DDOT": 0.0,
    "TLE_LINE1": "1 50804U 22001B   25315.31785877  .00008792  00000+0  56883-3 0  9992",
    "TLE_LINE2": "2 50804  53.2181 330.5112 0001431  76.6079 283.5073 15.08902951212674",
    "COMMENT": "Grouped by shell and plane from TLE"
  }
]